ELYSIUM STAR 2 & LFF    
1 43760U 18099C   24218.91591586  .00057534  00000+0  19107-2 0  9991
2 43760  97.5130 286.9574 0006280 112.0608 248.1300 15.30990428310836
